{"type":"FeatureCollection","features":[{"type":"Feature","properties":{"place_name":"Pałac Młodzieży","place-id":"312939122099638","x_lng":19.011403,"y_lat":50.25455,"name":"Pałac Młodzieży im. prof. Aleksandra Kamińskiego w Katowicach"},"geometry":{"type":"Point","coordinates":[19.011403,50.25455]}},{"type":"Feature","properties":{"place_name":"Rondo Sztuki","place-id":"202111499818994","x_lng":19.023562,"y_lat":50.264589,"name":"Rondo Sztuki"},"geometry":{"type":"Point","coordinates":[19.023562,50.264589]}},{"type":"Feature","properties":{"place_name":"Sztauwajery","place-id":"119773141689786","x_lng":19.043048,"y_lat":50.245338,"name":"Sztauwajery"},"geometry":{"type":"Point","coordinates":[19.043048,50.245338]}},{"type":"Feature","properties":{"place_name":"Muzeum Śląskie","place-id":"334195793031","x_lng":19.03458,"y_lat":50.263555,"name":"Muzeum Śląskie"},"geometry":{"type":"Point","coordinates":[19.03458,50.263555]}},{"type":"Feature","properties":{"place_name":"Katowice Miasto Ogrodów","place-id":"179603073902","x_lng":19.023011,"y_lat":50.252944,"name":"Katowice Miasto Ogrodów"},"geometry":{"type":"Point","coordinates":[19.023011,50.252944]}},{"type":"Feature","properties":{"place_name":"Filharmonia Śląska","place-id":"_filharmonia_slaska","x_lng":19.013837,"y_lat":50.260673,"name":"Filharmonia Śląska"},"geometry":{"type":"Point","coordinates":[19.013837,50.260673]}},{"type":"Feature","properties":{"place_name":"Teatr Śląski","place-id":"201695066515967","x_lng":19.022718,"y_lat":50.259712,"name":"Teatr Śląski"},"geometry":{"type":"Point","coordinates":[19.022718,50.259712]}},{"type":"Feature","properties":{"place_name":"Kino Kosmos","place-id":"199178653443636","x_lng":19.020174,"y_lat":50.268636,"name":"Kino Kosmos"},"geometry":{"type":"Point","coordinates":[19.020174,50.268636]}},{"type":"Feature","properties":{"place_name":"Akademia Sztuk Pięknych","place-id":"105251459590505","x_lng":19.001117,"y_lat":50.254405,"name":"Akademia Sztuk Pięknych"},"geometry":{"type":"Point","coordinates":[19.001117,50.254405]}},{"type":"Feature","properties":{"place_name":"MegaClub","place-id":"222994523564","x_lng":19.00622,"y_lat":50.264808,"name":"MegaClub"},"geometry":{"type":"Point","coordinates":[19.00622,50.264808]}},{"type":"Feature","properties":{"place_name":"Biblioteka Śląska","place-id":"137853539570833","x_lng":19.03176,"y_lat":50.252381,"name":"Biblioteka Śląska"},"geometry":{"type":"Point","coordinates":[19.03176,50.252381]}},{"type":"Feature","properties":{"place_name":"Muchowiec","place-id":"536905763044408","x_lng":19.026367,"y_lat":50.23366,"name":"Muchowiec"},"geometry":{"type":"Point","coordinates":[19.026367,50.23366]}},{"type":"Feature","properties":{"place_name":"Park Kościuszki","place-id":"114549831962377","x_lng":19.026367,"y_lat":50.23366,"name":"Park Kościuszki"},"geometry":{"type":"Point","coordinates":[19.026367,50.23366]}},{"type":"Feature","properties":{"place_name":"Park Śląski (Pola Marsowe)","place-id":"_park_slaski_pola_marsowe","x_lng":18.976133,"y_lat":50.285455,"name":"Park Śląski (Pola Marsowe)"},"geometry":{"type":"Point","coordinates":[18.976133,50.285455]}},{"type":"Feature","properties":{"place_name":"Mariacka","place-id":"_mariacka","x_lng":19.026009,"y_lat":50.257491,"name":"Mariacka"},"geometry":{"type":"Point","coordinates":[19.026009,50.257491]}}]}