{"type":"FeatureCollection","features":[{"type":"Feature","properties":{"place-id":"_park_slaski_pola_marsowe","place_name":"Park Śląski","name":"Park Śląski (Pola Marsowe)"},"geometry":{"type":"Point","coordinates":[18.976133,50.285455]}},{"type":"Feature","properties":{"place-id":"312939122099638","place_name":"pl. Rostka","name":"Pałac Młodzieży im. prof. Aleksandra Kamińskiego w Katowicach"},"geometry":{"type":"Point","coordinates":[19.011403,50.25455]}},{"type":"Feature","properties":{"place-id":"202111499818994","place_name":"rondo Ziętka","name":"Rondo Sztuki"},"geometry":{"type":"Point","coordinates":[19.023562,50.264589]}},{"type":"Feature","properties":{"place-id":"119773141689786","place_name":"Trzy Stawy","name":"Sztauwajery"},"geometry":{"type":"Point","coordinates":[19.043048,50.245338]}},{"type":"Feature","properties":{"place-id":"334195793031","place_name":"Strefa Kultury","name":"Muzeum Śląskie"},"geometry":{"type":"Point","coordinates":[19.03458,50.263555]}},{"type":"Feature","properties":{"place-id":"179603073902","place_name":"pl. Sejmu Śląskiego","name":"Katowice Miasto Ogrodów"},"geometry":{"type":"Point","coordinates":[19.023011,50.252944]}},{"type":"Feature","properties":{"place-id":"_filharmonia_slaska","place_name":"pl. Wolności","name":"Filharmonia Śląska"},"geometry":{"type":"Point","coordinates":[19.013837,50.260673]}},{"type":"Feature","properties":{"place-id":"201695066515967","place_name":"Rynek","name":"Teatr Śląski"},"geometry":{"type":"Point","coordinates":[19.022718,50.259712]}},{"type":"Feature","properties":{"place-id":"199178653443636","place_name":"pl. Grunwaldzki","name":"Kino Kosmos"},"geometry":{"type":"Point","coordinates":[19.020174,50.268636]}},{"type":"Feature","properties":{"place-id":"105251459590505","place_name":"Raciborska","name":"Akademia Sztuk Pięknych"},"geometry":{"type":"Point","coordinates":[19.001117,50.254405]}},{"type":"Feature","properties":{"place-id":"222994523564","place_name":"Baildon","name":"MegaClub"},"geometry":{"type":"Point","coordinates":[19.00622,50.264808]}},{"type":"Feature","properties":{"place-id":"137853539570833","place_name":"pl. Rady Europy","name":"Biblioteka Śląska"},"geometry":{"type":"Point","coordinates":[19.03176,50.252381]}},{"type":"Feature","properties":{"place-id":"536905763044408","place_name":"Muchowiec","name":"Muchowiec"},"geometry":{"type":"Point","coordinates":[19.026367,50.23366]}},{"type":"Feature","properties":{"place-id":"_mariacka","place_name":"Mariacka","name":"Mariacka"},"geometry":{"type":"Point","coordinates":[19.026009,50.257491]}}]}